CCSDS_OEM_VERS = 1.0
CREATION_DATE  = 2017-05-11T11:41:15
ORIGINATOR     = GMAT USER

META_START
OBJECT_NAME          = MOPSSat_alt_35785_km_RAAN_180_123
OBJECT_ID            = SatId
CENTER_NAME          = Earth
REF_FRAME            = EME2000
TIME_SYSTEM          = UTC
START_TIME           = 2017-01-01T00:00:00.000
USEABLE_START_TIME   = 2017-01-01T00:00:00.000
USEABLE_STOP_TIME    = 2017-01-02T00:00:00.000
STOP_TIME            = 2017-01-02T00:00:00.000
INTERPOLATION        = Lagrange
INTERPOLATION_DEGREE = 7 
META_STOP


                                                                                   

2017-01-01T22:45:50.000  -2.562892668083515e+04   1.685509950773085e+04   1.283433193907379e-01  -1.770960592301692e+00  -3.660473933229733e+00   3.357739451130355e-04
2017-01-01T22:46:00.000  -2.564661858125982e+04   1.681848313637944e+04   1.317010949127368e-01  -1.767418847857589e+00  -3.662799838174766e+00   3.357810908227074e-04
2017-01-01T22:46:10.000  -2.566427504301119e+04   1.678184352486584e+04   1.350589394787271e-01  -1.763872821496068e+00  -3.665121888154884e+00   3.357877468591070e-04
2017-01-01T22:46:20.000  -2.568189602327330e+04   1.674518071182953e+04   1.384168481857412e-01  -1.760322518009848e+00  -3.667440073121113e+00   3.357939127153920e-04
2017-01-01T22:46:30.000  -2.569948147929132e+04   1.670849473598510e+04   1.417748161281097e-01  -1.756767942218788e+00  -3.669754383029714e+00   3.357995878863998e-04
2017-01-01T22:46:40.000  -2.571703136831706e+04   1.667178563623286e+04   1.451328383872792e-01  -1.753209098980557e+00  -3.672064807835133e+00   3.358047718686351e-04
2017-01-01T22:46:50.000  -2.573454564763258e+04   1.663505345161723e+04   1.484909100357773e-01  -1.749645993186770e+00  -3.674371337493087e+00   3.358094641602832e-04
2017-01-01T22:47:00.000  -2.575202427455825e+04   1.659829822130491e+04   1.518490261391132e-01  -1.746078629760776e+00  -3.676673961961739e+00   3.358136642612289e-04
2017-01-01T22:47:10.000  -2.576946720647403e+04   1.656151998454079e+04   1.552071817598133e-01  -1.742507013653408e+00  -3.678972671204554e+00   3.358173716730566e-04
2017-01-01T22:47:20.000  -2.578687440083152e+04   1.652471878062870e+04   1.585653719593163e-01  -1.738931149841244e+00  -3.681267455191923e+00   3.358205858991237e-04
2017-01-01T22:47:30.000  -2.580424581517236e+04   1.648789464888643e+04   1.619235918019454e-01  -1.735351043322129e+00  -3.683558303903672e+00   3.358233064445037e-04
2017-01-01T22:47:40.000  -2.582158140707667e+04   1.645104762875820e+04   1.652818363447237e-01  -1.731766699126179e+00  -3.685845207322333e+00   3.358255328160121e-04
2017-01-01T22:47:50.000  -2.583888113438834e+04   1.641417775932689e+04   1.686401006816426e-01  -1.728178122268159e+00  -3.688128155462975e+00   3.358272645221609e-04
2017-01-01T22:48:00.000  -2.585614495494194e+04   1.637728507990453e+04   1.719983798900559e-01  -1.724585317805140e+00  -3.690407138337181e+00   3.358285010732138e-04
2017-01-01T22:48:10.000  -2.587337282666674e+04   1.634036962980931e+04   1.753566690509634e-01  -1.720988290814776e+00  -3.692682145966843e+00   3.358292419811816e-04
2017-01-01T22:48:20.000  -2.589056470718389e+04   1.630343144922846e+04   1.787149631705096e-01  -1.717387046479388e+00  -3.694953168331038e+00   3.358294867598422e-04
2017-01-01T22:48:30.000  -2.590772055421013e+04   1.626647057835549e+04   1.820732572585203e-01  -1.713781590001949e+00  -3.697220195419386e+00   3.358292349247411e-04
2017-01-01T22:48:40.000  -2.592484032545364e+04   1.622948705761255e+04   1.854315463082535e-01  -1.710171926627739e+00  -3.699483217218372e+00   3.358284859931988e-04
2017-01-01T22:48:50.000  -2.594192397889166e+04   1.619248092706245e+04   1.887898253500414e-01  -1.706558061587210e+00  -3.701742223748023e+00   3.358272394843351e-04
2017-01-01T22:49:00.000  -2.595897147254133e+04   1.615545222689339e+04   1.921480894070561e-01  -1.702940000143084e+00  -3.703997205031749e+00   3.358254949190587e-04
2017-01-01T22:49:10.000  -2.597598276451291e+04   1.611840099730722e+04   1.955063335055311e-01  -1.699317747579528e+00  -3.706248151103435e+00   3.358232518200784e-04
2017-01-01T22:49:20.000  -2.599295781298757e+04   1.608132727856133e+04   1.988645526708242e-01  -1.695691309206128e+00  -3.708495052004609e+00   3.358205097118986e-04
2017-01-01T22:49:30.000  -2.600989657621010e+04   1.604423111099069e+04   2.022227419255572e-01  -1.692060690360163e+00  -3.710737897783495e+00   3.358172681208375e-04
2017-01-01T22:49:40.000  -2.602679901246896e+04   1.600711253505209e+04   2.055808962856148e-01  -1.688425896410969e+00  -3.712976678492450e+00   3.358135265750443e-04
2017-01-01T22:49:50.000  -2.604366508008504e+04   1.596997159134364e+04   2.089390107582808e-01  -1.684786932761732e+00  -3.715211384186555e+00   3.358092846044664e-04
2017-01-01T22:50:00.000  -2.606049473739459e+04   1.593280832064995e+04   2.122970803383064e-01  -1.681143804854089e+00  -3.717442004921387e+00   3.358045417409110e-04
2017-01-01T22:50:10.000  -2.607728794279963e+04   1.589562276382859e+04   2.156551000181285e-01  -1.677496518156943e+00  -3.719668530759777e+00   3.357992975180199e-04
2017-01-01T22:50:20.000  -2.609404465455058e+04   1.585841496230211e+04   2.190130647436469e-01  -1.673845078214944e+00  -3.721890951742973e+00   3.357935514714010e-04
2017-01-01T22:50:30.000  -2.611076483101111e+04   1.582118495746216e+04   2.223709694678553e-01  -1.670189490589858e+00  -3.724109257925905e+00   3.357873031384994e-04
2017-01-01T22:50:40.000  -2.612744843055966e+04   1.578393279089072e+04   2.257288091309233e-01  -1.666529760882341e+00  -3.726323439364157e+00   3.357805520586493e-04
2017-01-01T22:50:50.000  -2.614409541197396e+04   1.574665850350341e+04   2.290865787374546e-01  -1.662865894647810e+00  -3.728533486165067e+00   3.357732977729366e-04
2017-01-01T22:51:00.000  -2.616070573404769e+04   1.570936213640373e+04   2.324442732794603e-01  -1.659197897480337e+00  -3.730739388436924e+00   3.357655398243439e-04
2017-01-01T22:51:10.000  -2.617727935567850e+04   1.567204373068980e+04   2.358018877538371e-01  -1.655525774993733e+00  -3.732941136300693e+00   3.357572777577408e-04
2017-01-01T22:51:20.000  -2.619381623564843e+04   1.563470332793459e+04   2.391594171188896e-01  -1.651849532868536e+00  -3.735138719861025e+00   3.357485111199099e-04
2017-01-01T22:51:30.000  -2.621031633278892e+04   1.559734096983017e+04   2.425168563266456e-01  -1.648169176817307e+00  -3.737332129228113e+00   3.357392394595668e-04
2017-01-01T22:51:40.000  -2.622677960597898e+04   1.555995669818636e+04   2.458742003228710e-01  -1.644484712584398e+00  -3.739521354517578e+00   3.357294623273319e-04
2017-01-01T22:51:50.000  -2.624320601399212e+04   1.552255055529310e+04   2.492314440148184e-01  -1.640796145981942e+00  -3.741706385830072e+00   3.357191792759279e-04
2017-01-01T22:52:00.000  -2.625959551570518e+04   1.548512258343344e+04   2.525885823147170e-01  -1.637103482841618e+00  -3.743887213279201e+00   3.357083898599687e-04
2017-01-01T22:52:10.000  -2.627594807001598e+04   1.544767282507488e+04   2.559456101226657e-01  -1.633406729033594e+00  -3.746063826980615e+00   3.356970936360425e-04
2017-01-01T22:52:20.000  -2.629226363621266e+04   1.541020132202437e+04   2.593025224024099e-01  -1.629705890383134e+00  -3.748236217101240e+00   3.356852901624377e-04
2017-01-01T22:52:30.000  -2.630854217360454e+04   1.537270811627297e+04   2.626593141056028e-01  -1.626000972753963e+00  -3.750404373810210e+00   3.356729789994283e-04
2017-01-01T22:52:40.000  -2.632478364160661e+04   1.533519324980521e+04   2.660159801889555e-01  -1.622291982029497e+00  -3.752568287290162e+00   3.356601597092241e-04
2017-01-01T22:52:50.000  -2.634098799952432e+04   1.529765676508189e+04   2.693725155707654e-01  -1.618578924160329e+00  -3.754727947708731e+00   3.356468318561072e-04
2017-01-01T22:53:00.000  -2.635715520671539e+04   1.526009870468230e+04   2.727289151632306e-01  -1.614861805129141e+00  -3.756883345240066e+00   3.356329950063550e-04
2017-01-01T22:53:10.000  -2.637328522258798e+04   1.522251911130305e+04   2.760851738724617e-01  -1.611140630950486e+00  -3.759034470064701e+00   3.356186487282321e-04
2017-01-01T22:53:20.000  -2.638937800645085e+04   1.518491802812208e+04   2.794412865662488e-01  -1.607415407707109e+00  -3.761181312349539e+00   3.356037925921720e-04
2017-01-01T22:53:30.000  -2.640543351771792e+04   1.514729549830925e+04   2.827972481175316e-01  -1.603686141501247e+00  -3.763323862275281e+00   3.355884261705654e-04
2017-01-01T22:53:40.000  -2.642145171582592e+04   1.510965156522233e+04   2.861530533869752e-01  -1.599952838474119e+00  -3.765462110025493e+00   3.355725490378501e-04
2017-01-01T22:53:50.000  -2.643743256060233e+04   1.507198627154327e+04   2.895086972999885e-01  -1.596215504720271e+00  -3.767596045835793e+00   3.355561607701857e-04
2017-01-01T22:54:00.000  -2.645337601189678e+04   1.503429966014375e+04   2.928641747695495e-01  -1.592474146373414e+00  -3.769725659944702e+00   3.355392609457902e-04
2017-01-01T22:54:10.000  -2.646928202967698e+04   1.499659177386187e+04   2.962194807161542e-01  -1.588728769584308e+00  -3.771850942606524e+00   3.355218491448705e-04
2017-01-01T22:54:20.000  -2.648515057377080e+04   1.495886265610177e+04   2.995746100142432e-01  -1.584979380580114e+00  -3.773971884057011e+00   3.355039249498198e-04
2017-01-01T22:54:30.000  -2.650098160408031e+04   1.492111235033903e+04   3.029295575364510e-01  -1.581225985615489e+00  -3.776088474541971e+00   3.354854879450834e-04
2017-01-01T22:54:40.000  -2.651677508053417e+04   1.488334090023087e+04   3.062843181437547e-01  -1.577468590983483e+00  -3.778200704310980e+00   3.354665377171914e-04
2017-01-01T22:54:50.000  -2.653253096310346e+04   1.484554834958746e+04   3.096388866881886e-01  -1.573707203012843e+00  -3.780308563619521e+00   3.354470738548192e-04
